NORAD_CAT_ID,OBJECT_NAME,OBJECT_TYPE,EPOCH,MEAN_MOTION,ECCENTRICITY,INCLINATION,RA_OF_ASC_NODE,ARG_OF_PERICENTER,MEAN_ANOMALY,BSTAR,MEAN_MOTION_DOT,MEAN_MOTION_DDOT,TLE_LINE0,TLE_LINE1,TLE_LINE2,SEMIMAJOR_AXIS,PERIOD,APOGEE,PERIGEE,DECAYED
53906.0,STARLINK-5054,PAYLOAD,2024-07-05 09:32:15,15.08843785,0.0001274,53.216,182.5247,88.4219,271.6919,7.5283e-05,9.11e-06,0.0,0 STARLINK-5054,1 53906U 22119W   24187.39740322  .00000911  00000-0  75283-4 0  9990,2 53906  53.2160 182.5247 0001274  88.4219 271.6919 15.08843785 98974,6917.869,95.437,540.615,538.852,0.0
53906.0,STARLINK-5054,PAYLOAD,2024-07-06 04:36:53,15.0883742,0.0001307,53.2163,178.9555,91.749,268.3652,-1.8915e-05,-5.89e-06,0.0,0 STARLINK-5054,1 53906U 22119W   24188.19228997 -.00000589  00000-0 -18915-4 0  9990,2 53906  53.2163 178.9555 0001307  91.7490 268.3652 15.08837420 99093,6917.888,95.438,540.657,538.849,0.0
53906.0,STARLINK-5054,PAYLOAD,2024-07-06 09:23:03,15.08837666,0.0001302,53.2163,178.0636,90.9306,269.1836,-2.8676e-05,-7.44e-06,0.0,0 STARLINK-5054,1 53906U 22119W   24188.39101020 -.00000744  00000-0 -28676-4 0  9997,2 53906  53.2163 178.0636 0001302  90.9306 269.1836 15.08837666 99541,6917.888,95.438,540.653,538.852,0.0
53906.0,STARLINK-5054,PAYLOAD,2024-07-07 06:03:03,15.08839814,0.0001324,53.2164,174.1976,90.8435,269.2709,-5.9992e-06,-3.83e-06,0.0,0 STARLINK-5054,1 53906U 22119W   24189.25212822 -.00000383  00000-0 -59992-5 0  9991,2 53906  53.2164 174.1976 0001324  90.8435 269.2709 15.08839814 99257,6917.881,95.438,540.662,538.83,0.0
53906.0,STARLINK-5054,PAYLOAD,2024-07-07 21:56:55,15.08833627,0.0001353,53.2168,171.2254,91.7971,268.3176,1.0352e-05,-1.23e-06,0.0,0 STARLINK-5054,1 53906U 22119W   24189.91453301 -.00000123  00000-0  10352-4 0  9990,2 53906  53.2168 171.2254 0001353  91.7971 268.3176 15.08833627 99350,6917.9,95.438,540.701,538.829,0.0
53906.0,STARLINK-5054,PAYLOAD,2024-07-08 09:04:37,15.08835202,0.0001343,53.2168,169.1442,91.4817,268.6329,2.8652e-05,1.68e-06,0.0,0 STARLINK-5054,1 53906U 22119W   24190.37821262  .00000168  00000-0  28652-4 0  9997,2 53906  53.2168 169.1442 0001343  91.4817 268.6329 15.08835202 99848,6917.895,95.438,540.689,538.831,0.0
53906.0,STARLINK-5054,PAYLOAD,2024-07-08 15:26:10,15.0883476,0.0001317,53.2166,167.9546,90.8345,269.2798,2.5607e-05,1.2e-06,0.0,0 STARLINK-5054,1 53906U 22119W   24190.64317385  .00000120  00000-0  25607-4 0  9998,2 53906  53.2166 167.9546 0001317  90.8345 269.2798 15.08834760 99886,6917.896,95.438,540.672,538.85,0.0
53906.0,STARLINK-5054,PAYLOAD,2024-07-09 04:09:15,15.08839525,0.0001267,53.2159,165.5755,91.4569,268.6568,3.7193e-05,3.04e-06,0.0,0 STARLINK-5054,1 53906U 22119W   24191.17309127  .00000304  00000-0  37193-4 0  9999,2 53906  53.2159 165.5755 0001267  91.4569 268.6568 15.08839525 99548,6917.882,95.438,540.623,538.87,0.0
53906.0,STARLINK-5054,PAYLOAD,2024-07-09 07:20:01,15.08842997,0.0001351,53.2167,164.9812,93.9078,266.2069,6.6812e-05,7.76e-06,0.0,0 STARLINK-5054,1 53906U 22119W   24191.30556812  .00000776  00000-0  66812-4 0  9992,2 53906  53.2167 164.9812 0001351  93.9078 266.2069 15.08842997 99985,6917.871,95.437,540.671,538.802,0.0
53906.0,STARLINK-5054,PAYLOAD,2024-07-09 15:16:57,15.08833924,0.0001494,53.2159,163.4937,86.3065,273.8098,1.3217e-05,-7.8e-07,0.0,0 STARLINK-5054,1 53906U 22119W   24191.63677677 -.00000078  00000-0  13217-4 0  9998,2 53906  53.2159 163.4937 0001494  86.3065 273.8098 15.08833924100033,6917.899,95.438,540.797,538.73,0.0
53906.0,STARLINK-5054,PAYLOAD,2024-07-10 04:00:02,15.08833268,0.0001421,53.2163,161.1146,86.6651,273.4504,-9.497e-06,-4.39e-06,0.0,0 STARLINK-5054,1 53906U 22119W   24192.16669962 -.00000439  00000-0 -94970-5 0  9993,2 53906  53.2163 161.1146 0001421  86.6651 273.4504 15.08833268 99697,6917.901,95.438,540.749,538.783,0.0
53906.0,STARLINK-5054,PAYLOAD,2024-07-10 07:10:49,15.08834016,0.0001437,53.2165,160.52,86.536,273.5796,-4.1512e-06,-3.54e-06,0.0,0 STARLINK-5054,1 53906U 22119W   24192.29917949 -.00000354  00000-0 -41512-5 0  9998,2 53906  53.2165 160.5200 0001437  86.5360 273.5796 15.08834016100134,6917.899,95.438,540.758,538.77,0.0
53906.0,STARLINK-5054,PAYLOAD,2024-07-10 15:07:44,15.08834302,0.0001496,53.2174,159.033,85.4605,274.6558,2.7932e-06,-2.44e-06,0.0,0 STARLINK-5054,1 53906U 22119W   24192.63038006 -.00000244  00000-0  27932-5 0  9991,2 53906  53.2174 159.0330 0001496  85.4605 274.6558 15.08834302100187,6917.898,95.438,540.798,538.728,0.0
53906.0,STARLINK-5054,PAYLOAD,2024-07-11 03:50:49,15.08842485,0.0001675,53.2185,156.653,85.8539,274.2644,3.6201e-06,-2.3e-06,0.0,0 STARLINK-5054,1 53906U 22119W   24193.16029614 -.00000230  00000-0  36201-5 0  9999,2 53906  53.2185 156.6530 0001675  85.8539 274.2644 15.08842485 99846,6917.873,95.437,540.897,538.579,0.0
53906.0,STARLINK-5054,PAYLOAD,2024-07-11 05:26:12,15.08842935,0.0001497,53.2174,156.3559,88.847,271.2694,3.1164e-06,-2.38e-06,0.0,0 STARLINK-5054,1 53906U 22119W   24193.22653528 -.00000238  00000-0  31164-5 0  9994,2 53906  53.2174 156.3559 0001497  88.8470 271.2694 15.08842935100273,6917.871,95.437,540.772,538.701,0.0
53906.0,STARLINK-5054,PAYLOAD,2024-07-12 06:52:22,15.08846832,0.0001307,53.2159,151.5956,103.5581,256.5556,5.7206e-05,6.23e-06,0.0,0 STARLINK-5054,1 53906U 22119W   24194.28636910  .00000623  00000-0  57206-4 0  9998,2 53906  53.2159 151.5956 0001307 103.5581 256.5556 15.08846832100017,6917.86,95.437,540.629,538.82,0.0
53906.0,STARLINK-5054,PAYLOAD,2024-07-12 21:10:51,15.08835944,0.0001319,53.217,148.9219,97.8756,262.2386,-3.5921e-06,-3.45e-06,0.0,0 STARLINK-5054,1 53906U 22119W   24194.88253891 -.00000345  00000-0 -35921-5 0  9991,2 53906  53.2170 148.9219 0001319  97.8756 262.2386 15.08835944100101,6917.893,95.438,540.67,538.845,0.0
53906.0,STARLINK-5054,PAYLOAD,2024-07-13 03:32:23,15.08841047,0.0001371,53.2167,147.7336,92.5097,267.6052,3.9435e-05,3.4e-06,0.0,0 STARLINK-5054,1 53906U 22119W   24195.14749468  .00000340  00000-0  39435-4 0  9997,2 53906  53.2167 147.7336 0001371  92.5097 267.6052 15.08841047100562,6917.877,95.437,540.691,538.794,0.0
53906.0,STARLINK-5054,PAYLOAD,2024-07-14 12:55:29,15.08843143,0.0001183,53.2165,141.4909,85.7934,274.3194,-4.8006e-05,-1.052e-05,0.0,0 STARLINK-5054,1 53906U 22119W   24196.53853667 -.00001052  00000-0 -48006-4 0  9995,2 53906  53.2165 141.4909 0001183  85.7934 274.3194 15.08843143100350,6917.871,95.437,540.554,538.917,0.0
53906.0,STARLINK-5054,PAYLOAD,2024-07-14 19:17:02,15.0883557,0.0001129,53.2163,140.3016,85.9391,274.173,5.7742e-05,6.31e-06,0.0,0 STARLINK-5054,1 53906U 22119W   24196.80349878  .00000631  00000-0  57742-4 0  9996,2 53906  53.2163 140.3016 0001129  85.9391 274.1730 15.08835570100814,6917.894,95.438,540.54,538.978,0.0
53906.0,STARLINK-5054,PAYLOAD,2024-07-15 12:46:16,15.08846457,0.0001156,53.2173,137.0312,87.8371,272.2754,5.7267e-05,6.24e-06,0.0,0 STARLINK-5054,1 53906U 22119W   24197.53213125  .00000624  00000-0  57267-4 0  9996,2 53906  53.2173 137.0312 0001156  87.8371 272.2754 15.08846457100929,6917.861,95.437,540.525,538.926,0.0
53906.0,STARLINK-5054,PAYLOAD,2024-07-16 04:40:08,15.08840877,0.0001325,53.2175,134.0567,85.8658,274.2485,3.6969e-05,3.01e-06,0.0,0 STARLINK-5054,1 53906U 22119W   24198.19453940  .00000301  00000-0  36969-4 0  9998,2 53906  53.2175 134.0567 0001325  85.8658 274.2485 15.08840877100602,6917.878,95.437,540.659,538.826,0.0
53906.0,STARLINK-5054,PAYLOAD,2024-07-17 12:27:51,15.08837242,0.0001338,53.2178,128.1081,90.1724,269.9421,-3.0551e-05,-7.74e-06,0.0,0 STARLINK-5054,1 53906U 22119W   24199.51934696 -.00000774  00000-0 -30551-4 0  9994,2 53906  53.2178 128.1081 0001338  90.1724 269.9421 15.08837242100802,6917.889,95.438,540.679,538.828,0.0
53906.0,STARLINK-5054,PAYLOAD,2024-07-18 01:10:56,15.08844344,0.0001561,53.2183,125.7299,89.4826,270.6345,7.0924e-05,8.41e-06,0.0,0 STARLINK-5054,1 53906U 22119W   24200.04926282  .00000841  00000-0  70924-4 0  9998,2 53906  53.2183 125.7299 0001561  89.4826 270.6345 15.08844344100887,6917.867,95.437,540.812,538.652,0.0
53906.0,STARLINK-5054,PAYLOAD,2024-07-18 12:18:38,15.08842129,0.0001533,53.2193,123.6502,76.8481,283.2682,7.8378e-05,9.6e-06,0.0,0 STARLINK-5054,1 53906U 22119W   24200.51294455  .00000960  00000-0  78378-4 0  9993,2 53906  53.2193 123.6502 0001533  76.8481 283.2682 15.08842129101376,6917.874,95.437,540.799,538.678,0.0
53906.0,STARLINK-5054,PAYLOAD,2024-07-19 04:12:29,15.08843692,0.0001824,53.2198,120.666,88.0693,272.0508,3.048e-05,1.97e-06,0.0,0 STARLINK-5054,1 53906U 22119W   24201.17534533  .00000197  00000-0  30480-4 0  9994,2 53906  53.2198 120.6660 0001824  88.0693 272.0508 15.08843692101050,6917.869,95.437,540.996,538.472,0.0
53906.0,STARLINK-5054,PAYLOAD,2024-07-19 12:09:25,15.08839898,0.0001638,53.2183,119.1804,105.8507,254.2665,-1.7618e-05,-5.68e-06,0.0,0 STARLINK-5054,1 53906U 22119W   24201.50654796 -.00000568  00000-0 -17618-4 0  9997,2 53906  53.2183 119.1804 0001638 105.8507 254.2665 15.08839898101523,6917.881,95.438,540.879,538.613,0.0
53906.0,STARLINK-5054,PAYLOAD,2024-07-20 00:52:30,15.0884055,0.0001412,53.2184,116.8032,110.0821,250.0323,3.5312e-05,2.74e-06,0.0,0 STARLINK-5054,1 53906U 22119W   24202.03646556  .00000274  00000-0  35312-4 0  9994,2 53906  53.2184 116.8032 0001412 110.0821 250.0323 15.08840550101182,6917.879,95.438,540.721,538.767,0.0
53906.0,STARLINK-5054,PAYLOAD,2024-07-20 21:32:31,15.08832821,0.0001239,53.2143,112.9401,107.3964,252.7164,4.1321e-05,3.7e-06,0.0,0 STARLINK-5054,1 53906U 22119W   24202.89759066  .00000370  00000-0  41321-4 0  9993,2 53906  53.2143 112.9401 0001239 107.3964 252.7164 15.08832821101733,6917.902,95.438,540.624,538.91,0.0
53906.0,STARLINK-5054,PAYLOAD,2024-07-21 03:54:03,15.08847925,0.0001302,53.2171,111.7527,98.9193,261.1946,5.8124e-06,-1.95e-06,0.0,0 STARLINK-5054,1 53906U 22119W   24203.16254368 -.00000195  00000-0  58124-5 0  9995,2 53906  53.2171 111.7527 0001302  98.9193 261.1946 15.08847925101351,6917.856,95.437,540.622,538.82,0.0
